[{"OBJECT_NAME":"STARLINK-5859","OBJECT_ID":"2023-037B","EPOCH":"2026-03-09T22:35:44.252160","MEAN_MOTION":14.98330181,"ECCENTRICITY":0.00029692,"INCLINATION":69.9982,"RA_OF_ASC_NODE":303.8736,"ARG_OF_PERICENTER":266.2403,"MEAN_ANOMALY":93.8417,"EPHEMERIS_TYPE":0,"CLASSIFICATION_TYPE":"U","NORAD_CAT_ID":55915,"ELEMENT_SET_NO":999,"REV_AT_EPOCH":16421,"BSTAR":-6.877978e-6,"MEAN_MOTION_DOT":-1.75e-6,"MEAN_MOTION_DDOT":0},{"OBJECT_NAME":"HAWK-9A","OBJECT_ID":"2024-066E","EPOCH":"2026-03-09T10:20:39.002208","MEAN_MOTION":14.98777479,"ECCENTRICITY":0.00036271,"INCLINATION":45.6088,"RA_OF_ASC_NODE":72.7153,"ARG_OF_PERICENTER":244.6286,"MEAN_ANOMALY":115.4219,"EPHEMERIS_TYPE":0,"CLASSIFICATION_TYPE":"U","NORAD_CAT_ID":59446,"ELEMENT_SET_NO":999,"REV_AT_EPOCH":10486,"BSTAR":0.00023458946,"MEAN_MOTION_DOT":2.638e-5,"MEAN_MOTION_DDOT":0}]
